CCSDS_OMM_VERS = 2.0
CREATION_DATE  = 
ORIGINATOR     = 

OBJECT_NAME    = 2025-313R
OBJECT_ID      = 2025-313R
CENTER_NAME    = EARTH
REF_FRAME      = TEME
TIME_SYSTEM    = UTC
MEAN_ELEMENT_THEORY = SGP/SGP4

EPOCH          = 2026-01-09T11:04:17.064768
MEAN_MOTION    = 15.20067443
ECCENTRICITY   = .00151417
INCLINATION    = 97.4134
RA_OF_ASC_NODE = 86.7279
ARG_OF_PERICENTER = 195.7915
MEAN_ANOMALY   = 164.2850

EPHEMERIS_TYPE = 0
CLASSIFICATION_TYPE = U
NORAD_CAT_ID   = 67263
ELEMENT_SET_NO = 999
REV_AT_EPOCH   = 181
BSTAR          = .53918129E-3
MEAN_MOTION_DOT = .11611E-3
MEAN_MOTION_DDOT = 0

CCSDS_OMM_VERS = 2.0
CREATION_DATE  = 
ORIGINATOR     = 

OBJECT_NAME    = 2025-313S
OBJECT_ID      = 2025-313S
CENTER_NAME    = EARTH
REF_FRAME      = TEME
TIME_SYSTEM    = UTC
MEAN_ELEMENT_THEORY = SGP/SGP4

EPOCH          = 2026-01-09T12:39:35.332992
MEAN_MOTION    = 15.19975490
ECCENTRICITY   = .00151094
INCLINATION    = 97.4202
RA_OF_ASC_NODE = 86.7853
ARG_OF_PERICENTER = 200.8946
MEAN_ANOMALY   = 159.1674

EPHEMERIS_TYPE = 0
CLASSIFICATION_TYPE = U
NORAD_CAT_ID   = 67264
ELEMENT_SET_NO = 999
REV_AT_EPOCH   = 182
BSTAR          = .3477643E-3
MEAN_MOTION_DOT = .744E-4
MEAN_MOTION_DDOT = 0

CCSDS_OMM_VERS = 2.0
CREATION_DATE  = 
ORIGINATOR     = 

OBJECT_NAME    = 2025-313T
OBJECT_ID      = 2025-313T
CENTER_NAME    = EARTH
REF_FRAME      = TEME
TIME_SYSTEM    = UTC
MEAN_ELEMENT_THEORY = SGP/SGP4

EPOCH          = 2026-01-09T12:38:42.910656
MEAN_MOTION    = 15.20096238
ECCENTRICITY   = .00150881
INCLINATION    = 97.4112
RA_OF_ASC_NODE = 86.7894
ARG_OF_PERICENTER = 196.3798
MEAN_ANOMALY   = 163.6951

EPHEMERIS_TYPE = 0
CLASSIFICATION_TYPE = U
NORAD_CAT_ID   = 67265
ELEMENT_SET_NO = 999
REV_AT_EPOCH   = 182
BSTAR          = .44033187E-3
MEAN_MOTION_DOT = .9475E-4
MEAN_MOTION_DDOT = 0

CCSDS_OMM_VERS = 2.0
CREATION_DATE  = 
ORIGINATOR     = 

OBJECT_NAME    = 2025-313U
OBJECT_ID      = 2025-313U
CENTER_NAME    = EARTH
REF_FRAME      = TEME
TIME_SYSTEM    = UTC
MEAN_ELEMENT_THEORY = SGP/SGP4

EPOCH          = 2026-01-09T12:38:40.864704
MEAN_MOTION    = 15.20102386
ECCENTRICITY   = .00150261
INCLINATION    = 97.4140
RA_OF_ASC_NODE = 86.7930
ARG_OF_PERICENTER = 195.0257
MEAN_ANOMALY   = 165.0534

EPHEMERIS_TYPE = 0
CLASSIFICATION_TYPE = U
NORAD_CAT_ID   = 67266
ELEMENT_SET_NO = 999
REV_AT_EPOCH   = 182
BSTAR          = .48987727E-3
MEAN_MOTION_DOT = .10552E-3
MEAN_MOTION_DDOT = 0

CCSDS_OMM_VERS = 2.0
CREATION_DATE  = 
ORIGINATOR     = 

OBJECT_NAME    = 2025-313V
OBJECT_ID      = 2025-313V
CENTER_NAME    = EARTH
REF_FRAME      = TEME
TIME_SYSTEM    = UTC
MEAN_ELEMENT_THEORY = SGP/SGP4

EPOCH          = 2026-01-09T06:19:11.925408
MEAN_MOTION    = 15.20146317
ECCENTRICITY   = .00142143
INCLINATION    = 97.4122
RA_OF_ASC_NODE = 86.5235
ARG_OF_PERICENTER = 201.8213
MEAN_ANOMALY   = 158.2418

EPHEMERIS_TYPE = 0
CLASSIFICATION_TYPE = U
NORAD_CAT_ID   = 67267
ELEMENT_SET_NO = 999
REV_AT_EPOCH   = 178
BSTAR          = .59691579E-3
MEAN_MOTION_DOT = .12889E-3
MEAN_MOTION_DDOT = 0

CCSDS_OMM_VERS = 2.0
CREATION_DATE  = 
ORIGINATOR     = 

OBJECT_NAME    = ZORKY-2M 7
OBJECT_ID      = 2025-313W
CENTER_NAME    = EARTH
REF_FRAME      = TEME
TIME_SYSTEM    = UTC
MEAN_ELEMENT_THEORY = SGP/SGP4

EPOCH          = 2026-01-09T12:38:48.549984
MEAN_MOTION    = 15.20070113
ECCENTRICITY   = .00151809
INCLINATION    = 97.4122
RA_OF_ASC_NODE = 86.7801
ARG_OF_PERICENTER = 195.9716
MEAN_ANOMALY   = 164.1043

EPHEMERIS_TYPE = 0
CLASSIFICATION_TYPE = U
NORAD_CAT_ID   = 67268
ELEMENT_SET_NO = 999
REV_AT_EPOCH   = 182
BSTAR          = .43234852E-3
MEAN_MOTION_DOT = .9295E-4
MEAN_MOTION_DDOT = 0

CCSDS_OMM_VERS = 2.0
CREATION_DATE  = 
ORIGINATOR     = 

OBJECT_NAME    = 2025-313X
OBJECT_ID      = 2025-313X
CENTER_NAME    = EARTH
REF_FRAME      = TEME
TIME_SYSTEM    = UTC
MEAN_ELEMENT_THEORY = SGP/SGP4

EPOCH          = 2026-01-09T12:38:11.080032
MEAN_MOTION    = 15.20204762
ECCENTRICITY   = .00150295
INCLINATION    = 97.4148
RA_OF_ASC_NODE = 86.7942
ARG_OF_PERICENTER = 194.2855
MEAN_ANOMALY   = 165.7958

EPHEMERIS_TYPE = 0
CLASSIFICATION_TYPE = U
NORAD_CAT_ID   = 67269
ELEMENT_SET_NO = 999
REV_AT_EPOCH   = 182
BSTAR          = .65617397E-3
MEAN_MOTION_DOT = .14207E-3
MEAN_MOTION_DDOT = 0

CCSDS_OMM_VERS = 2.0
CREATION_DATE  = 
ORIGINATOR     = 

OBJECT_NAME    = 2025-313Y
OBJECT_ID      = 2025-313Y
CENTER_NAME    = EARTH
REF_FRAME      = TEME
TIME_SYSTEM    = UTC
MEAN_ELEMENT_THEORY = SGP/SGP4

EPOCH          = 2026-01-09T11:04:13.115424
MEAN_MOTION    = 15.20073565
ECCENTRICITY   = .00151122
INCLINATION    = 97.4122
RA_OF_ASC_NODE = 86.7255
ARG_OF_PERICENTER = 196.3954
MEAN_ANOMALY   = 163.6795

EPHEMERIS_TYPE = 0
CLASSIFICATION_TYPE = U
NORAD_CAT_ID   = 67270
ELEMENT_SET_NO = 999
REV_AT_EPOCH   = 181
BSTAR          = .51970516E-3
MEAN_MOTION_DOT = .11191E-3
MEAN_MOTION_DDOT = 0

CCSDS_OMM_VERS = 2.0
CREATION_DATE  = 
ORIGINATOR     = 

OBJECT_NAME    = 2025-313Z
OBJECT_ID      = 2025-313Z
CENTER_NAME    = EARTH
REF_FRAME      = TEME
TIME_SYSTEM    = UTC
MEAN_ELEMENT_THEORY = SGP/SGP4

EPOCH          = 2026-01-09T12:39:21.316320
MEAN_MOTION    = 15.19965707
ECCENTRICITY   = .00151105
INCLINATION    = 97.4117
RA_OF_ASC_NODE = 86.7809
ARG_OF_PERICENTER = 192.0649
MEAN_ANOMALY   = 168.0226

EPHEMERIS_TYPE = 0
CLASSIFICATION_TYPE = U
NORAD_CAT_ID   = 67271
ELEMENT_SET_NO = 999
REV_AT_EPOCH   = 182
BSTAR          = .24670025E-3
MEAN_MOTION_DOT = .5255E-4
MEAN_MOTION_DDOT = 0

CCSDS_OMM_VERS = 2.0
CREATION_DATE  = 
ORIGINATOR     = 

OBJECT_NAME    = 2025-313AA
OBJECT_ID      = 2025-313AA
CENTER_NAME    = EARTH
REF_FRAME      = TEME
TIME_SYSTEM    = UTC
MEAN_ELEMENT_THEORY = SGP/SGP4

EPOCH          = 2026-01-09T12:37:41.074176
MEAN_MOTION    = 15.20245743
ECCENTRICITY   = .00148781
INCLINATION    = 97.4121
RA_OF_ASC_NODE = 86.7807
ARG_OF_PERICENTER = 196.4148
MEAN_ANOMALY   = 163.6608

EPHEMERIS_TYPE = 0
CLASSIFICATION_TYPE = U
NORAD_CAT_ID   = 67272
ELEMENT_SET_NO = 999
REV_AT_EPOCH   = 182
BSTAR          = .6321283E-3
MEAN_MOTION_DOT = .13698E-3
MEAN_MOTION_DDOT = 0

CCSDS_OMM_VERS = 2.0
CREATION_DATE  = 
ORIGINATOR     = 

OBJECT_NAME    = 2025-313AB
OBJECT_ID      = 2025-313AB
CENTER_NAME    = EARTH
REF_FRAME      = TEME
TIME_SYSTEM    = UTC
MEAN_ELEMENT_THEORY = SGP/SGP4

EPOCH          = 2026-01-09T12:39:07.198560
MEAN_MOTION    = 15.19964122
ECCENTRICITY   = .00140091
INCLINATION    = 97.4135
RA_OF_ASC_NODE = 86.7830
ARG_OF_PERICENTER = 200.9499
MEAN_ANOMALY   = 159.1164

EPHEMERIS_TYPE = 0
CLASSIFICATION_TYPE = U
NORAD_CAT_ID   = 67273
ELEMENT_SET_NO = 999
REV_AT_EPOCH   = 182
BSTAR          = .18085267E-3
MEAN_MOTION_DOT = .3832E-4
MEAN_MOTION_DDOT = 0

CCSDS_OMM_VERS = 2.0
CREATION_DATE  = 
ORIGINATOR     = 

OBJECT_NAME    = 2025-313AC
OBJECT_ID      = 2025-313AC
CENTER_NAME    = EARTH
REF_FRAME      = TEME
TIME_SYSTEM    = UTC
MEAN_ELEMENT_THEORY = SGP/SGP4

EPOCH          = 2026-01-09T09:28:42.882528
MEAN_MOTION    = 15.20094935
ECCENTRICITY   = .00148046
INCLINATION    = 97.4111
RA_OF_ASC_NODE = 86.6591
ARG_OF_PERICENTER = 196.0790
MEAN_ANOMALY   = 163.9978

EPHEMERIS_TYPE = 0
CLASSIFICATION_TYPE = U
NORAD_CAT_ID   = 67274
ELEMENT_SET_NO = 999
REV_AT_EPOCH   = 180
BSTAR          = .40577136E-3
MEAN_MOTION_DOT = .8724E-4
MEAN_MOTION_DDOT = 0

